satname,norad_id,inclination_deg,eccentricity,mean_motion_rev_per_day,perigee_km,apogee_km,l1,l2
STARLINK-1316,45415,53.1557,0.000668,15.37116567,450.0766286592507,459.20521996613206,1 45415U 20019BH  26145.24221465  .00054806  00000+0  14857-2 0  9994,2 45415  53.1557 131.7917 0006680  27.7140 332.4219 15.37116567341742
STARLINK-1286,45417,53.0455,0.0001182,15.62384481,379.9725428083466,381.5703487649307,1 45417U 20019BK  26145.12062471  .00049122  00000+0  54685-3 0  9992,2 45417  53.0455 121.5298 0001182 112.2635 247.8504 15.62384481342118
STARLINK-1308,45419,53.0461,0.0008222,15.64219533,369.9314769418352,381.0371318147545,1 45419U 20019BM  26145.22705832  .00093251  00000+0  95463-3 0  9991,2 45419  53.0461 140.5960 0008222   3.5514 356.5557 15.64219533341600
STARLINK-1329,45531,53.0423,0.0004722,15.7120252,352.2795067071711,358.63871487420147,1 45531U 20025A   26145.47100908  .00064248  00000+0  49879-3 0  9997,2 45531  53.0423  63.8250 0004722  92.8895 267.2662 15.71202520337488
STARLINK-1338,45532,53.0448,0.0004508,15.66284671,366.5047341740428,372.58844569873054,1 45532U 20025B   26145.19698793  .00051464  00000+0  49065-3 0  9994,2 45532  53.0448  71.3090 0004508  64.5789 295.5692 15.66284671337356
STARLINK-1350,45535,53.0722,0.0001666,15.37902009,451.1763349482835,453.45224131749,1 45535U 20025E   26145.38702489  .00010428  00000+0  28573-3 0  9992,2 45535  53.0722  32.4202 0001666  76.1822 283.9366 15.37902009337951
STARLINK-1362,45538,53.1577,0.0003324,15.35599058,456.86899490114774,461.4144177851249,1 45538U 20025H   26145.20756000 -.00103384  00000+0 -29738-2 0  9993,2 45538  53.1577 104.1896 0003324 102.2364 257.9012 15.35599058336912
STARLINK-1368,45540,53.1569,0.0004831,15.35938513,454.83167015860454,461.4368754623947,1 45540U 20025K   26145.61165154  .00042949  00000+0  12138-2 0  9998,2 45540  53.1569 102.6675 0004831  73.9639 286.1896 15.35938513336969
STARLINK-1371,45542,53.0444,0.0006273,15.5938351,385.1948644320373,393.68546674398476,1 45542U 20025M   26145.24155070  .00088532  00000+0  10945-2 0  9997,2 45542  53.0444  80.1452 0006273  74.0499 286.1204 15.59383510337234
STARLINK-1372,45543,53.1566,0.0004297,15.36424986,453.754240824258,459.62809215053767,1 45543U 20025N   26145.18441802  .00044312  00000+0  12324-2 0  9993,2 45543  53.1566 104.2197 0004297  63.8489 296.2956 15.36424986336002
STARLINK-1373,45544,53.0453,0.0004064,15.67992149,361.9068024782009,367.3873373702345,1 45544U 20025P   26144.97657892  .00049833  00000+0  44372-3 0  9990,2 45544  53.0453  77.8195 0004064  41.4434 318.6889 15.67992149337240
STARLINK-1327,45555,53.042,0.0005223,15.65656562,367.8258989356973,374.8764142640821,1 45555U 20025AA  26145.12470187  .00045469  00000+0  44541-3 0  9999,2 45555  53.0420  54.0079 0005223  46.0102 314.1342 15.65656562337581
STARLINK-1356,45564,53.0459,0.0003016,15.55977519,397.26851120874016,401.3566688014307,1 45564U 20025AK  26145.49104174  .00058529  00000+0  82786-3 0  9993,2 45564  53.0459  64.9232 0003016  56.6708 303.4591 15.55977519337462
STARLINK-1357,45565,53.0464,0.0007475,15.67614044,360.6902144427431,370.7722974854096,1 45565U 20025AL  26144.94294822  .00052684  00000+0  47546-3 0  9994,2 45565  53.0464  24.9991 0007475  81.4298 278.7564 15.67614044337985
STARLINK-1361,45567,53.0438,0.0001407,15.59801469,387.2791392290301,389.18319523128866,1 45567U 20025AN  26145.60812348  .00083426  00000+0  10169-2 0  9997,2 45567  53.0438  62.5708 0001407  65.8027 294.3132 15.59801469337511
STARLINK-1363,45568,53.0281,0.0007283,16.11724683,237.29472138757774,246.93778227419534,1 45568U 20025AP  26145.89105556  .00743222  32036-3  68534-3 0  9990,2 45568  53.0281   4.5315 0007283 258.1574 101.8644 16.11724683338332
STARLINK-1366,45569,53.0326,0.000428,16.02263127,265.3083165217113,270.99754070060226,1 45569U 20025AQ  26145.05040676  .00376258  73264-4  63249-3 0  9998,2 45569  53.0326  11.3848 0004280 256.5302 103.5252 16.02263127338161
STARLINK-1376,45570,53.1562,0.0005413,15.36784927,451.924788540402,459.32301809433375,1 45570U 20025AR  26145.09927985  .00043266  00000+0  11897-2 0  9995,2 45570  53.1562  81.0519 0005413  63.5423 296.6136 15.36784927337227
STARLINK-1320,45572,53.0441,0.0004735,15.8236619,320.57784577201346,326.9245338877827,1 45572U 20025AT  26144.80728730  .00111973  00000+0  52549-3 0  9993,2 45572  53.0441 326.3491 0004735 271.9985  88.0494 15.82366190338806
STARLINK-1321,45573,53.0433,0.0004832,15.60677683,382.4300756742532,388.96664616704584,1 45573U 20025AU  26145.43363142  .00088016  00000+0  10362-2 0  9993,2 45573  53.0433  47.4120 0004832  84.5432 275.6132 15.60677683337407
STARLINK-1331,45578,53.047,0.0005643,15.60575246,382.17734622932403,389.8113448659078,1 45578U 20025AZ  26145.58355435  .00074717  00000+0  88530-3 0  9996,2 45578  53.0470  53.5597 0005643  62.9591 297.1997 15.60575246337642
STARLINK-1333,45580,53.1552,0.000317,15.33822088,462.2523647278149,466.5905467887651,1 45580U 20025BB  26145.51093857  .00027211  00000+0  82848-3 0  9992,2 45580  53.1552  80.3476 0003170  87.1533 272.9832 15.33822088337276
STARLINK-1335,45581,53.1534,0.0004367,15.35311643,457.00877370240596,462.9811981789271,1 45581U 20025BC  26145.09873269  .00043488  00000+0  12537-2 0  9990,2 45581  53.1534  79.1523 0004367  79.1092 281.0402 15.35311643337249
STARLINK-1337,45582,53.0476,0.0006867,15.72197389,347.9961717804972,357.2401909465816,1 45582U 20025BD  26145.60363476  .00067309  00000+0  50039-3 0  9990,2 45582  53.0476  43.9209 0006867  69.4166 290.7587 15.72197389337763
STARLINK-1347,45586,53.04,0.0004434,15.66803245,365.06636499080014,371.0488903866335,1 45586U 20025BH  26145.03619858  .00051455  00000+0  48045-3 0  9998,2 45586  53.0400  16.6664 0004434  95.5911 264.5609 15.66803245338091
STARLINK-1364,45589,53.043,0.0001752,15.67120259,365.96602774063194,368.3295755351255,1 45589U 20025BL  26145.58335648  .00531375  00000+0  45744-2 0  9999,2 45589  53.0430  50.7389 0001752  76.1455  51.6837 15.67120259  5949
STARLINK-1365,45590,53.0463,0.000493,15.56611913,394.130666331831,400.8114158603521,1 45590U 20025BM  26145.52896508  .00075323  00000+0  10363-2 0  9997,2 45590  53.0463  84.1164 0004930  47.8732 312.2697 15.56611913337211
STARLINK-1443,45660,53.1335,0.0004333,15.31179002,469.3252119708941,475.26179504523407,1 45660U 20035D   26145.48318001  .00039555  00000+0  13003-2 0  9999,2 45660  53.1335  68.9689 0004333  60.9020 299.2414 15.31179002330500
STARLINK-1446,45663,53.0232,0.0004053,15.4657153,424.00632632106044,429.5223793576715,1 45663U 20035G   26145.61014167  .00020883  00000+0  42042-3 0  9993,2 45663  53.0232 352.9797 0004053 131.4528 228.6826 15.46571530331568
STARLINK-1448,45665,53.0452,0.0006579,15.66484587,364.5335579247394,373.4114045801716,1 45665U 20035J   26145.57885660  .00053697  00000+0  50721-3 0  9996,2 45665  53.0452  38.0109 0006579  65.8079 294.3623 15.66484587330920
STARLINK-1451,45668,53.0519,0.0002966,15.13469794,523.5803914937851,527.6757049203816,1 45668U 20035M   26145.09655856  .00020760  00000+0  11605-2 0  9990,2 45668  53.0519  80.0957 0002966  71.5120 288.6194 15.13469794330308
STARLINK-1452,45669,53.0269,8.47e-05,15.56039096,398.55975170749934,399.707821378739,1 45669U 20035N   26145.05435096  .00078076  00000+0  10970-2 0  9996,2 45669  53.0269  14.7396 0000847 227.6379 132.4559 15.56039096331215
STARLINK-1453,45670,53.0413,0.0002235,15.6677227,366.6387476173368,369.65433636060607,1 45670U 20035P   26145.61369238  .00058646  00000+0  54724-3 0  9991,2 45670  53.0413 358.1738 0002235 150.9135 209.2005 15.66772270331380
STARLINK-1454,45671,53.0438,0.0002957,15.64978762,371.3034404267564,375.2962401741088,1 45671U 20035Q   26145.12375903  .00051059  00000+0  51301-3 0  9993,2 45671  53.0438  41.3281 0002957  46.7954 313.3307 15.64978762330837
STARLINK-1456,45673,53.0415,0.0005677,15.63482263,373.77204356094535,381.4425156159896,1 45673U 20035S   26145.40098524  .00092365  00000+0  97435-3 0  9990,2 45673  53.0415  34.4389 0005677 105.9889 254.1751 15.63482263330978
STARLINK-1458,45675,53.0467,0.0004619,15.54237976,401.2358047193911,407.5014834333888,1 45675U 20035U   26145.15325674  .00089501  00000+0  13400-2 0  9990,2 45675  53.0467  49.3396 0004619  56.0766 304.0682 15.54237976330703
STARLINK-1460,45676,53.1565,0.0004104,15.33713065,461.937398740396,467.55403687517355,1 45676U 20035V   26145.48500816  .00050070  00000+0  15155-2 0  9998,2 45676  53.1565  67.6395 0004104 100.2375 259.9090 15.33713065330484
STARLINK-1392,45677,53.1529,0.0003352,15.36819248,453.23151712509934,457.81280222574696,1 45677U 20035W   26145.20585418  .00046413  00000+0  12739-2 0  9991,2 45677  53.1529  67.8967 0003352 101.0208 259.1173 15.36819248330498
STARLINK-1394,45679,53.0422,0.0006791,15.63054357,374.25154070312783,383.4288671414952,1 45679U 20035Y   26145.08141690  .00092025  00000+0  98693-3 0  9993,2 45679  53.0422  26.2525 0006791 109.2846 250.8902 15.63054357331051
STARLINK-1402,45685,53.0421,0.000646,15.56202004,394.2829899125172,403.0386126717867,1 45685U 20035AE  26145.34466929  .00081318  00000+0  11341-2 0  9991,2 45685  53.0421  15.0662 0006460 129.9764 230.1815 15.56202004331247
STARLINK-1404,45686,53.1586,0.0004968,15.42723271,434.68972088428836,441.4623101364996,1 45686U 20035AF  26145.05904740  .00051140  00000+0  11545-2 0  9994,2 45686  53.1586  50.8220 0004968 111.4124 248.7412 15.42723271330724
STARLINK-1413,45689,53.1584,0.00031,15.33646333,462.8228594764041,467.0655698294886,1 45689U 20035AJ  26145.45850755  .00040082  00000+0  12197-2 0  9994,2 45689  53.1584  52.4048 0003100 113.4200 246.7128 15.33646333330652
STARLINK-1417,45693,53.0502,0.0006094,15.16038152,513.6262166201304,522.0310195154316,1 45693U 20035AN  26145.48270958  .00022122  00000+0  11489-2 0  9991,2 45693  53.0502  65.2506 0006094  93.5657 266.6033 15.16038152330534
